OBJECT_NAME,OBJECT_ID,EPOCH,MEAN_MOTION,ECCENTRICITY,INCLINATION,RA_OF_ASC_NODE,ARG_OF_PERICENTER,MEAN_ANOMALY,EPHEMERIS_TYPE,CLASSIFICATION_TYPE,NORAD_CAT_ID,ELEMENT_SET_NO,REV_AT_EPOCH,BSTAR,MEAN_MOTION_DOT,MEAN_MOTION_DDOT
ONEWEB-0309,2021-075W,2026-06-17T13:04:17.414400,13.17648791,.0001969,87.9134,5.7918,102.8946,257.2405,0,U,49095,999,23362,-.1381E-3,-.41E-6,0
ONEWEB-0310,2021-075X,2026-06-17T12:58:23.576160,13.12442855,.0001811,87.8939,350.6100,91.6542,268.4794,0,U,49096,999,23523,-.16413E-2,-.578E-5,0
ONEWEB-0311,2021-075Y,2026-06-17T13:14:00.985056,13.17650815,.0002268,87.9134,5.7900,81.7358,278.4030,0,U,49097,999,23367,.14669E-3,.7E-6,0
ONEWEB-0312,2021-075Z,2026-06-17T11:46:32.945376,13.17653145,.0002193,87.9131,5.8128,91.1434,268.9949,0,U,49098,999,23364,-.13501236E-3,-.4E-6,0
ONEWEB-0313,2021-075AA,2026-06-17T11:53:37.395744,13.17648516,.00019912,87.9128,5.8177,86.3585,273.7774,0,U,49099,999,23363,-.67137451E-4,-.13E-6,0
ONEWEB-0314,2021-075AB,2026-06-17T12:54:35.112096,13.17649329,.0002238,87.9141,5.7818,91.0792,269.0596,0,U,49100,999,23361,-.60206E-4,-.1E-6,0
ONEWEB-0315,2021-075AC,2026-06-17T12:19:22.227744,13.12442477,.00020597,87.8948,350.5793,81.7220,278.4142,0,U,49101,999,23521,.1667932E-3,.73E-6,0
ONEWEB-0316,2021-075AD,2026-06-17T12:55:00.243264,13.18687280,.0001915,87.9165,335.3861,92.0003,268.1349,0,U,49102,999,23725,.20385E-3,.93E-6,0
ONEWEB-0317,2021-075AE,2026-06-17T12:24:15.009696,13.12442642,.00015586,87.8949,350.6025,114.4157,245.7135,0,U,49103,999,23523,-.34355044E-3,-.111E-5,0
ONEWEB-0318,2021-075AF,2026-06-17T12:50:09.288672,13.18685914,.0001998,87.9171,335.3883,86.9021,273.2340,0,U,49104,999,23721,.10921E-3,.56E-6,0
ONEWEB-0319,2021-075AG,2026-06-17T15:05:47.358240,13.17650015,.000219,87.9133,5.7800,76.4578,283.6798,0,U,49105,999,23366,.11991E-3,.59E-6,0
ONEWEB-0323,2021-075AH,2026-06-17T11:57:25.290432,13.12443608,.00022993,87.8949,350.5875,82.0505,278.0885,0,U,49106,999,23459,.11027359E-2,.409E-5,0
ONEWEB-0329,2021-075AJ,2026-06-17T11:39:14.749632,13.17649100,.0002019,87.9133,5.8091,88.7855,271.3507,0,U,49107,999,23362,-.6445662E-4,-.12E-6,0
ONEWEB-0330,2021-075AK,2026-06-17T12:13:23.749824,13.17695999,.00014369,87.9132,5.8249,92.5205,267.6091,0,U,49108,999,23366,.1473145E-1,.574E-4,0
ONEWEB-0292,2021-083A,2026-06-17T09:27:30.151872,13.13472204,.00019429,87.8952,320.1969,91.7512,268.3839,0,U,49186,999,23095,.26807341E-3,.111E-5,0
ONEWEB-0303,2021-083B,2026-06-17T12:45:17.584992,13.18687492,.0001984,87.9166,335.3876,89.6637,270.4723,0,U,49187,999,23002,.37977E-3,.163E-5,0
ONEWEB-0306,2021-083C,2026-06-17T10:41:27.417408,13.18687066,.00017635,87.9170,335.3926,99.7659,260.3672,0,U,49188,999,23005,.10570399E-3,.55E-6,0
ONEWEB-0307,2021-083D,2026-06-17T09:18:57.654720,13.13470999,.00019514,87.8955,320.1952,94.5396,265.5956,0,U,49189,999,23095,-.1147332E-3,-.29E-6,0
ONEWEB-0320,2021-083E,2026-06-17T11:10:35.388768,13.18686178,.00018272,87.9160,335.4067,94.5032,265.6309,0,U,49190,999,23001,-.17528395E-4,.6E-7,0
ONEWEB-0321,2021-083F,2026-06-17T19:22:13.503072,13.20772473,.0001827,87.9195,274.3111,107.7100,252.4233,0,U,49191,999,23691,.14476E-3,.72E-6,0
ONEWEB-0322,2021-083G,2026-06-17T09:12:50.217984,13.13468658,.00014143,87.8952,320.1964,102.2513,257.8774,0,U,49192,999,23094,-.38163893E-3,-.127E-5,0
ONEWEB-0324,2021-083H,2026-06-17T10:31:44.580288,13.18685128,.00019896,87.9171,335.3994,97.6604,262.4754,0,U,49193,999,23003,.29014527E-4,.24E-6,0
ONEWEB-0325,2021-083J,2026-06-17T12:25:52.017888,13.18685753,.00018196,87.9162,335.3920,91.0361,269.0980,0,U,49194,999,23005,-.12385393E-3,-.36E-6,0
ONEWEB-0326,2021-083K,2026-06-17T10:58:39.548352,13.18685450,.00019904,87.9170,335.4019,85.9222,274.2138,0,U,49195,999,23003,.4978788E-4,.33E-6,0
ONEWEB-0327,2021-083L,2026-06-17T12:47:31.047936,13.18685162,.0001929,87.9163,335.3910,81.2643,278.8707,0,U,49196,999,23006,.11922E-3,.6E-6,0
ONEWEB-0328,2021-083M,2026-06-17T10:47:55.760352,13.13470517,.00019622,87.8961,320.1562,99.3194,260.8157,0,U,49197,999,23093,-.7270567E-3,-.253E-5,0
ONEWEB-0331,2021-083N,2026-06-17T10:48:44.234208,13.18686944,.0002096,87.9171,335.3970,86.1802,273.9570,0,U,49198,999,23004,.25364604E-4,.23E-6,0
ONEWEB-0333,2021-083P,2026-06-17T10:40:36.866496,13.13469808,.00018381,87.8952,320.1834,95.2620,264.8719,0,U,49199,999,23094,-.62894492E-3,-.217E-5,0
ONEWEB-0334,2021-083Q,2026-06-17T17:55:50.347200,13.21260580,.0001414,87.9193,274.3340,129.5392,230.5866,0,U,49200,999,23686,-.12534E-3,-.38E-6,0
ONEWEB-0335,2021-083R,2026-06-17T10:33:18.235296,13.13470464,.00019921,87.8954,320.1814,92.9162,267.2195,0,U,49201,999,23095,-.48992511E-3,-.166E-5,0
